ONEWEB-0621             
1 55162U 23004Y   26159.16232568  .00000186  00000+0  48996-3 0  9997
2 55162  87.8904  22.8616 0002041  82.6403 277.4957 13.11415352164628
ONEWEB-0622             
1 55163U 23004Z   26159.16741288  .00000034  00000+0  60672-4 0  9990
2 55163  87.8904  22.8630 0002448  94.4565 265.6842 13.11415108164616
ONEWEB-0623             
1 55164U 23004AA  26159.51330640  .00000000  00000+0 -32337-4 0  9997
2 55164  87.9136   7.6045 0002620  82.7445 277.3984 13.17649160166448
ONEWEB-0624             
1 55165U 23004AB  26159.50706706  .00000073  00000+0  16704-3 0  9995
2 55165  87.8947 352.3136 0001901  87.4790 272.6557 13.12928820166931
ONEWEB-0625             
1 55166U 23004AC  26159.50318674  .00000045  00000+0  83246-4 0  9994
2 55166  87.9140   7.6020 0001752  82.4951 277.6380 13.17648715166439
ONEWEB-0626             
1 55167U 23004AD  26159.49306654  .00000046  00000+0  86242-4 0  9998
2 55167  87.9140   7.6037 0001668  99.9946 260.1374 13.17648827166435
ONEWEB-0627             
1 55168U 23004AE  26159.48123583  .00000013  00000+0  92213-6 0  9997
2 55168  87.9138   7.6064 0002345  83.4077 276.7322 13.17647553166430
ONEWEB-0628             
1 55169U 23004AF  26159.48527845 -.00000417  00000+0 -11955-2 0  9997
2 55169  87.8948 352.3842 0002486  82.4875 277.6535 13.12444372166899
ONEWEB-0629             
1 55170U 23004AG  26159.00115018  .00000031  00000+0  46294-4 0  9998
2 55170  87.9139   7.6986 0002000  78.1933 281.9423 13.17651041166377
ONEWEB-0631             
1 55171U 23004AH  26159.52743029  .00000029  00000+0  41714-4 0  9994
2 55171  87.9167 337.1590 0002080 104.3062 255.8301 13.18684488168531
ONEWEB-0709             
1 55172U 23004AJ  26159.35390497 -.00000442  00000+0 -12823-2 0  9991
2 55172  87.8895  22.8381 0001414 112.2456 247.8822 13.11418705164715
ONEWEB-0710             
1 55173U 23004AK  26159.47112042  .00000103  00000+0  23307-3 0  9995
2 55173  87.9138   7.6002 0002015  87.9197 272.2165 13.17649018166438
ONEWEB-0711             
1 55174U 23004AL  26159.17250708 -.00000158  00000+0 -48298-3 0  9993
2 55174  87.8895  22.8609 0002545  87.2407 272.9012 13.11416332164650
ONEWEB-0713             
1 55175U 23004AM  26159.34373510 -.00000624  00000+0 -17975-2 0  9995
2 55175  87.8899  22.8290 0002205  86.4580 273.6800 13.11417146164665
ONEWEB-0715             
1 55176U 23004AN  26159.10975955 -.00000458  00000+0 -13295-2 0  9997
2 55176  87.8894  22.8761 0001774 106.8759 253.2564 13.11417463164673
ONEWEB-0716             
1 55177U 23004AP  26159.00875356  .00000090  00000+0  19765-3 0  9990
2 55177  87.9141   7.6947 0001682  80.6654 279.4668 13.17648678166372
ONEWEB-0717             
1 55178U 23004AQ  26159.52342843  .00000071  00000+0  14990-3 0  9992
2 55178  87.9148   7.5793 0002374  93.1608 266.9795 13.17648011166491
ONEWEB-0719             
1 55179U 23004AR  26159.00200740  .00000041  00000+0  72329-4 0  9993
2 55179  87.9146   7.6632 0001834  81.3389 278.7950 13.17648210166370
ONEWEB-0530             
1 55796U 23029A   26159.07487489  .00000018  00000+0  12495-4 0  9991
2 55796  87.9181 276.2859 0002362  96.0913 264.0489 13.20770715159942
ONEWEB-0534             
1 55797U 23029B   26159.06308539  .00000056  00000+0  10459-3 0  9998
2 55797  87.9187 276.2891 0001820  98.9730 261.1609 13.20771480159943
ONEWEB-0556             
1 55798U 23029C   26159.37285728  .00000061  00000+0  11793-3 0  9995
2 55798  87.9179 276.2268 0001934  74.7385 285.3962 13.20773344159982
ONEWEB-0562             
1 55799U 23029D   26159.35937271  .00000056  00000+0  10516-3 0  9997
2 55799  87.9180 276.2104 0002520  83.8707 276.2714 13.20770394159981
ONEWEB-0563             
1 55800U 23029E   26159.35433708  .00000095  00000+0  20173-3 0  9999
2 55800  87.9179 276.2419 0001711  99.6547 260.4779 13.20771855159977
ONEWEB-0564             
1 55801U 23029F   26159.34759875  .00000081  00000+0  16692-3 0  9991
2 55801  87.9184 276.2167 0002253  92.8361 267.3030 13.20770550159983
ONEWEB-0638             
1 55802U 23029G   26159.33505522  .00000013  00000+0 -67555-6 0  9992
2 55802  87.8945 291.5174 0001957  83.2977 276.8375 13.14502676158232
ONEWEB-0639             
1 55803U 23029H   26159.38880189  .00000081  00000+0  16947-3 0  9993
2 55803  87.9162 306.7295 0000925 113.7684 246.3546 13.19725026157744
ONEWEB-0640             
1 55804U 23029J   26159.34456956  .00000211  00000+0  53349-3 0  9993
2 55804  87.8947 291.5064 0001601  77.9096 282.2213 13.14502393158252
ONEWEB-0641             
1 55805U 23029K   26159.38405311  .00000120  00000+0  26804-3 0  9992
2 55805  87.9169 306.7189 0001664  99.8619 260.2702 13.19723904157751
ONEWEB-0642             
1 55806U 23029L   26159.45513731  .00000050  00000+0  92093-4 0  9993
2 55806  87.9163 306.7173 0001204 119.6756 240.4497 13.19723928157759
ONEWEB-0643             
1 55807U 23029M   26159.39056156 -.00000163  00000+0 -47340-3 0  9991
2 55807  87.8951 291.4847 0001577 120.8149 239.3136 13.14502789158231
ONEWEB-0644             
1 55808U 23029N   26159.37457407  .00000078  00000+0  16357-3 0  9991
2 55808  87.9161 306.7349 0001600 104.8483 255.2827 13.19724385157745
