OBJECT_NAME,OBJECT_ID,EPOCH,MEAN_MOTION,ECCENTRICITY,INCLINATION,RA_OF_ASC_NODE,ARG_OF_PERICENTER,MEAN_ANOMALY,EPHEMERIS_TYPE,CLASSIFICATION_TYPE,NORAD_CAT_ID,ELEMENT_SET_NO,REV_AT_EPOCH,BSTAR,MEAN_MOTION_DOT,MEAN_MOTION_DDOT
ONEWEB-0621,2023-004Y,2026-06-08T03:53:44.938752,13.11415352,.0002041,87.8904,22.8616,82.6403,277.4957,0,U,55162,999,16462,.48996E-3,.186E-5,0
ONEWEB-0622,2023-004Z,2026-06-08T04:01:04.472832,13.11415108,.0002448,87.8904,22.8630,94.4565,265.6842,0,U,55163,999,16461,.60672E-4,.34E-6,0
ONEWEB-0623,2023-004AA,2026-06-08T12:19:09.672960,13.17649160,.000262,87.9136,7.6045,82.7445,277.3984,0,U,55164,999,16644,-.32337E-4,0,0
ONEWEB-0624,2023-004AB,2026-06-08T12:10:10.593984,13.12928820,.0001901,87.8947,352.3136,87.4790,272.6557,0,U,55165,999,16693,.16704E-3,.73E-6,0
ONEWEB-0625,2023-004AC,2026-06-08T12:04:35.334336,13.17648715,.0001752,87.9140,7.6020,82.4951,277.6380,0,U,55166,999,16643,.83246E-4,.45E-6,0
ONEWEB-0626,2023-004AD,2026-06-08T11:50:00.949056,13.17648827,.0001668,87.9140,7.6037,99.9946,260.1374,0,U,55167,999,16643,.86242E-4,.46E-6,0
ONEWEB-0627,2023-004AE,2026-06-08T11:32:58.775712,13.17647553,.0002345,87.9138,7.6064,83.4077,276.7322,0,U,55168,999,16643,.92213E-6,.13E-6,0
ONEWEB-0628,2023-004AF,2026-06-08T11:38:48.058080,13.12444372,.0002486,87.8948,352.3842,82.4875,277.6535,0,U,55169,999,16689,-.11955E-2,-.417E-5,0
ONEWEB-0629,2023-004AG,2026-06-08T00:01:39.375552,13.17651041,.00020008,87.9139,7.6986,78.1933,281.9423,0,U,55170,999,16637,.46293784E-4,.31E-6,0
ONEWEB-0631,2023-004AH,2026-06-08T12:39:29.977056,13.18684488,.000208,87.9167,337.1590,104.3062,255.8301,0,U,55171,999,16853,.41714E-4,.29E-6,0
ONEWEB-0709,2023-004AJ,2026-06-08T08:29:37.389408,13.11418705,.0001414,87.8895,22.8381,112.2456,247.8822,0,U,55172,999,16471,-.12823E-2,-.442E-5,0
ONEWEB-0710,2023-004AK,2026-06-08T11:18:24.804288,13.17649018,.0002015,87.9138,7.6002,87.9197,272.2165,0,U,55173,999,16643,.23307E-3,.103E-5,0
ONEWEB-0711,2023-004AL,2026-06-08T04:08:24.611712,13.11416332,.0002545,87.8895,22.8609,87.2407,272.9012,0,U,55174,999,16465,-.48298E-3,-.158E-5,0
ONEWEB-0713,2023-004AM,2026-06-08T08:14:58.712640,13.11417146,.0002205,87.8899,22.8290,86.4580,273.6800,0,U,55175,999,16466,-.17975E-2,-.624E-5,0
ONEWEB-0715,2023-004AN,2026-06-08T02:38:03.225120,13.11417463,.00017741,87.8894,22.8761,106.8759,253.2564,0,U,55176,999,16467,-.13295124E-2,-.458E-5,0
ONEWEB-0716,2023-004AP,2026-06-08T00:12:36.307584,13.17648678,.00016825,87.9141,7.6947,80.6654,279.4668,0,U,55177,999,16637,.19765189E-3,.9E-6,0
ONEWEB-0717,2023-004AQ,2026-06-08T12:33:44.216352,13.17648011,.0002374,87.9148,7.5793,93.1608,266.9795,0,U,55178,999,16649,.1499E-3,.71E-6,0
ONEWEB-0719,2023-004AR,2026-06-08T00:02:53.439360,13.17648210,.00018343,87.9146,7.6632,81.3389,278.7950,0,U,55179,999,16637,.72329412E-4,.41E-6,0
ONEWEB-0530,2023-029A,2026-06-08T01:47:49.190496,13.20770715,.00023628,87.9181,276.2859,96.0913,264.0489,0,U,55796,999,15994,.12495173E-4,.18E-6,0
ONEWEB-0534,2023-029B,2026-06-08T01:30:50.577696,13.20771480,.00018209,87.9187,276.2891,98.9730,261.1609,0,U,55797,999,15994,.10459427E-3,.56E-6,0
ONEWEB-0556,2023-029C,2026-06-08T08:56:54.868992,13.20773344,.0001934,87.9179,276.2268,74.7385,285.3962,0,U,55798,999,15998,.11793E-3,.61E-6,0
ONEWEB-0562,2023-029D,2026-06-08T08:37:29.802144,13.20770394,.000252,87.9180,276.2104,83.8707,276.2714,0,U,55799,999,15998,.10516E-3,.56E-6,0
ONEWEB-0563,2023-029E,2026-06-08T08:30:14.723712,13.20771855,.0001711,87.9179,276.2419,99.6547,260.4779,0,U,55800,999,15997,.20173E-3,.95E-6,0
ONEWEB-0564,2023-029F,2026-06-08T08:20:32.532000,13.20770550,.0002253,87.9184,276.2167,92.8361,267.3030,0,U,55801,999,15998,.16692E-3,.81E-6,0
ONEWEB-0638,2023-029G,2026-06-08T08:02:28.771008,13.14502676,.0001957,87.8945,291.5174,83.2977,276.8375,0,U,55802,999,15823,-.67555E-6,.13E-6,0
ONEWEB-0639,2023-029H,2026-06-08T09:19:52.483296,13.19725026,.0000925,87.9162,306.7295,113.7684,246.3546,0,U,55803,999,15774,.16947E-3,.81E-6,0
ONEWEB-0640,2023-029J,2026-06-08T08:16:10.809984,13.14502393,.0001601,87.8947,291.5064,77.9096,282.2213,0,U,55804,999,15825,.53349E-3,.211E-5,0
ONEWEB-0641,2023-029K,2026-06-08T09:13:02.188704,13.19723904,.0001664,87.9169,306.7189,99.8619,260.2702,0,U,55805,999,15775,.26804E-3,.12E-5,0
ONEWEB-0642,2023-029L,2026-06-08T10:55:23.863584,13.19723928,.0001204,87.9163,306.7173,119.6756,240.4497,0,U,55806,999,15775,.92093E-4,.5E-6,0
ONEWEB-0643,2023-029M,2026-06-08T09:22:24.518784,13.14502789,.0001577,87.8951,291.4847,120.8149,239.3136,0,U,55807,999,15823,-.4734E-3,-.163E-5,0
ONEWEB-0644,2023-029N,2026-06-08T08:59:23.199648,13.19724385,.00016,87.9161,306.7349,104.8483,255.2827,0,U,55808,999,15774,.16357E-3,.78E-6,0
